{
  "type": "FeatureCollection",
  "features": [
    {
      "type": "Feature",
      "properties": {
        "norad_id": 36684,
        "name": "FENGYUN 1C DEB",
        "group": "fengyun-1c-debris",
        "lat": -30.656811954197916,
        "lon": -106.18787737514556,
        "alt_km": 586.8987468050072,
        "timestamp": "2025-12-13T05:42:57.848551+00:00",
        "meta_object_name": "FENGYUN 1C DEB",
        "meta_object_id": "1999-025DZE",
        "meta_epoch": "2025-12-11T17:28:13.774944",
        "meta_mean_motion": 14.96222667,
        "meta_eccentricity": 0.00195809,
        "meta_inclination": 99.4548,
        "meta_ra_of_asc_node": 77.6594,
        "meta_arg_of_pericenter": 113.0891,
        "meta_mean_anomaly": 247.2391,
        "meta_ephemeris_type": 0,
        "meta_classification_type": "U",
        "meta_norad_cat_id": 36684,
        "meta_element_set_no": 999,
        "meta_rev_at_epoch": 65886,
        "meta_bstar": 0.0059551386,
        "meta_mean_motion_dot": 0.00067989,
        "meta_mean_motion_ddot": 0,
        "tle_line1": "1 36684U 99025DZE 25345.72793721  .00067989  00000+0  59551-2 0  9994",
        "tle_line2": "2 36684  99.4548  77.6594 0019580 113.0891 247.2391 14.96222667658868"
      },
      "geometry": {
        "type": "Point",
        "coordinates": [
          -106.18787737514556,
          -30.656811954197916
        ]
      }
    },
    {
      "type": "Feature",
      "properties": {
        "norad_id": 36686,
        "name": "FENGYUN 1C DEB",
        "group": "fengyun-1c-debris",
        "lat": 56.82148744111439,
        "lon": 164.66888498779286,
        "alt_km": 559.2666410570955,
        "timestamp": "2025-12-13T05:42:57.848561+00:00",
        "meta_object_name": "FENGYUN 1C DEB",
        "meta_object_id": "1999-025DZG",
        "meta_epoch": "2025-12-12T06:42:02.904192",
        "meta_mean_motion": 14.77202514,
        "meta_eccentricity": 0.01051548,
        "meta_inclination": 99.0019,
        "meta_ra_of_asc_node": 177.6307,
        "meta_arg_of_pericenter": 54.8471,
        "meta_mean_anomaly": 306.2533,
        "meta_ephemeris_type": 0,
        "meta_classification_type": "U",
        "meta_norad_cat_id": 36686,
        "meta_element_set_no": 999,
        "meta_rev_at_epoch": 65845,
        "meta_bstar": 0.0013733546,
        "meta_mean_motion_dot": 0.00010604,
        "meta_mean_motion_ddot": 0,
        "tle_line1": "1 36686U 99025DZG 25346.27920028  .00010604  00000+0  13734-2 0  9994",
        "tle_line2": "2 36686  99.0019 177.6307 0105154  54.8471 306.2533 14.77202514658458"
      },
      "geometry": {
        "type": "Point",
        "coordinates": [
          164.66888498779286,
          56.82148744111439
        ]
      }
    },
    {
      "type": "Feature",
      "properties": {
        "norad_id": 36687,
        "name": "FENGYUN 1C DEB",
        "group": "fengyun-1c-debris",
        "lat": 80.48558955210011,
        "lon": 7.402085100655366,
        "alt_km": 936.194632204255,
        "timestamp": "2025-12-13T05:42:57.848572+00:00",
        "meta_object_name": "FENGYUN 1C DEB",
        "meta_object_id": "1999-025DZH",
        "meta_epoch": "2025-12-09T12:23:51.138240",
        "meta_mean_motion": 14.04528107,
        "meta_eccentricity": 0.00903007,
        "meta_inclination": 98.7162,
        "meta_ra_of_asc_node": 70.0789,
        "meta_arg_of_pericenter": 274.4984,
        "meta_mean_anomaly": 84.5872,
        "meta_ephemeris_type": 0,
        "meta_classification_type": "U",
        "meta_norad_cat_id": 36687,
        "meta_element_set_no": 999,
        "meta_rev_at_epoch": 62677,
        "meta_bstar": 0.00041265981,
        "meta_mean_motion_dot": 6.4e-06,
        "meta_mean_motion_ddot": 0,
        "tle_line1": "1 36687U 99025DZH 25343.51656410  .00000640  00000+0  41266-3 0  9991",
        "tle_line2": "2 36687  98.7162  70.0789 0090300 274.4984  84.5872 14.04528107626770"
      },
      "geometry": {
        "type": "Point",
        "coordinates": [
          7.402085100655366,
          80.48558955210011
        ]
      }
    },
    {
      "type": "Feature",
      "properties": {
        "norad_id": 36689,
        "name": "FENGYUN 1C DEB",
        "group": "fengyun-1c-debris",
        "lat": -6.919624475908246,
        "lon": 59.98714327588375,
        "alt_km": 1052.424118270893,
        "timestamp": "2025-12-13T05:42:57.848583+00:00",
        "meta_object_name": "FENGYUN 1C DEB",
        "meta_object_id": "1999-025DZK",
        "meta_epoch": "2025-11-28T10:04:14.213280",
        "meta_mean_motion": 13.74189275,
        "meta_eccentricity": 0.03131537,
        "meta_inclination": 98.4796,
        "meta_ra_of_asc_node": 227.8431,
        "meta_arg_of_pericenter": 334.7216,
        "meta_mean_anomaly": 23.8887,
        "meta_ephemeris_type": 0,
        "meta_classification_type": "U",
        "meta_norad_cat_id": 36689,
        "meta_element_set_no": 999,
        "meta_rev_at_epoch": 58016,
        "meta_bstar": 0.0027905602,
        "meta_mean_motion_dot": 3.71e-05,
        "meta_mean_motion_ddot": 0,
        "tle_line1": "1 36689U 99025DZK 25332.41960895  .00003710  00000+0  27906-2 0  9990",
        "tle_line2": "2 36689  98.4796 227.8431 0313153 334.7216  23.8887 13.74189275580169"
      },
      "geometry": {
        "type": "Point",
        "coordinates": [
          59.98714327588375,
          -6.919624475908246
        ]
      }
    },
    {
      "type": "Feature",
      "properties": {
        "norad_id": 36691,
        "name": "FENGYUN 1C DEB",
        "group": "fengyun-1c-debris",
        "lat": 73.44560430015092,
        "lon": -43.41586632033465,
        "alt_km": 948.7612400888502,
        "timestamp": "2025-12-13T05:42:57.848594+00:00",
        "meta_object_name": "FENGYUN 1C DEB",
        "meta_object_id": "1999-025DZM",
        "meta_epoch": "2025-12-08T17:50:07.073952",
        "meta_mean_motion": 14.07105067,
        "meta_eccentricity": 0.01290803,
        "meta_inclination": 98.6374,
        "meta_ra_of_asc_node": 343.0423,
        "meta_arg_of_pericenter": 246.8073,
        "meta_mean_anomaly": 111.9457,
        "meta_ephemeris_type": 0,
        "meta_classification_type": "U",
        "meta_norad_cat_id": 36691,
        "meta_element_set_no": 999,
        "meta_rev_at_epoch": 59553,
        "meta_bstar": 0.0032098608,
        "meta_mean_motion_dot": 5.753e-05,
        "meta_mean_motion_ddot": 0,
        "tle_line1": "1 36691U 99025DZM 25342.74313743  .00005753  00000+0  32099-2 0  9992",
        "tle_line2": "2 36691  98.6374 343.0423 0129080 246.8073 111.9457 14.07105067595539"
      },
      "geometry": {
        "type": "Point",
        "coordinates": [
          -43.41586632033465,
          73.44560430015092
        ]
      }
    },
    {
      "type": "Feature",
      "properties": {
        "norad_id": 36692,
        "name": "FENGYUN 1C DEB",
        "group": "fengyun-1c-debris",
        "lat": 53.965491311560804,
        "lon": -120.68173790880121,
        "alt_km": 849.4522579602981,
        "timestamp": "2025-12-13T05:42:57.848604+00:00",
        "meta_object_name": "FENGYUN 1C DEB",
        "meta_object_id": "1999-025DZN",
        "meta_epoch": "2025-12-04T12:56:52.897632",
        "meta_mean_motion": 13.93448865,
        "meta_eccentricity": 0.0115856,
        "meta_inclination": 99.9932,
        "meta_ra_of_asc_node": 243.9547,
        "meta_arg_of_pericenter": 34.8482,
        "meta_mean_anomaly": 326.0192,
        "meta_ephemeris_type": 0,
        "meta_classification_type": "U",
        "meta_norad_cat_id": 36692,
        "meta_element_set_no": 999,
        "meta_rev_at_epoch": 59691,
        "meta_bstar": 0.0009556,
        "meta_mean_motion_dot": 1.272e-05,
        "meta_mean_motion_ddot": 0,
        "tle_line1": "1 36692U 99025DZN 25338.53950113  .00001272  00000+0  95560-3 0  9998",
        "tle_line2": "2 36692  99.9932 243.9547 0115856  34.8482 326.0192 13.93448865596912"
      },
      "geometry": {
        "type": "Point",
        "coordinates": [
          -120.68173790880121,
          53.965491311560804
        ]
      }
    },
    {
      "type": "Feature",
      "properties": {
        "norad_id": 36695,
        "name": "FENGYUN 1C DEB",
        "group": "fengyun-1c-debris",
        "lat": 19.88737848853724,
        "lon": -34.43882359354073,
        "alt_km": 800.3938656922837,
        "timestamp": "2025-12-13T05:42:57.848615+00:00",
        "meta_object_name": "FENGYUN 1C DEB",
        "meta_object_id": "1999-025DZR",
        "meta_epoch": "2025-12-09T16:47:24.081792",
        "meta_mean_motion": 14.43738947,
        "meta_eccentricity": 0.02573024,
        "meta_inclination": 98.2214,
        "meta_ra_of_asc_node": 325.1368,
        "meta_arg_of_pericenter": 139.5563,
        "meta_mean_anomaly": 222.5073,
        "meta_ephemeris_type": 0,
        "meta_classification_type": "U",
        "meta_norad_cat_id": 36695,
        "meta_element_set_no": 999,
        "meta_rev_at_epoch": 89524,
        "meta_bstar": 0.00025681579,
        "meta_mean_motion_dot": 1.255e-05,
        "meta_mean_motion_ddot": 0,
        "tle_line1": "1 36695U 99025DZR 25343.69958428  .00001255  00000+0  25682-3 0  9990",
        "tle_line2": "2 36695  98.2214 325.1368 0257302 139.5563 222.5073 14.43738947895245"
      },
      "geometry": {
        "type": "Point",
        "coordinates": [
          -34.43882359354073,
          19.88737848853724
        ]
      }
    }
  ]
}